{"type": "FeatureCollection", "features": [ {"type": "Feature", "properties": {"norad_id": 38755, "name": "SPOT 6", "group": "resource", "lat": -16.867029424121665, "lon": 47.54763881290513, "alt_km": 702.9332918052123, "timestamp": "2025-12-06T03:35:01.454288+00:00", "meta": {"OBJECT_NAME": "SPOT 6", "OBJECT_ID": "2012-047A", "EPOCH": "2025-12-05T07:54:17.747712", "MEAN_MOTION": 14.58592478, "ECCENTRICITY": 0.00010584, "INCLINATION": 98.1583, "RA_OF_ASC_NODE": 44.2499, "ARG_OF_PERICENTER": 101.0558, "MEAN_ANOMALY": 259.076, "EPHEMERIS_TYPE": 0, "CLASSIFICATION_TYPE": "U", "NORAD_CAT_ID": 38755, "ELEMENT_SET_NO": 999, "REV_AT_EPOCH": 70479, "BSTAR": 0.00018826757, "MEAN_MOTION_DOT": 8.31e-06, "MEAN_MOTION_DDOT": 0}, "tle": {"line1": "1 38755U 12047A   25339.32937208  .00000831  00000+0  18827-3 0  9998", "line2": "2 38755  98.1583  44.2499 0001058 101.0558 259.0760 14.58592478704799"}}, "geometry": {"type": "Point", "coordinates": [47.54763881290513, -16.867029424121665]}}, {"type": "Feature", "properties": {"norad_id": 39019, "name": "PLEIADES 1B", "group": "resource", "lat": -61.77337795744565, "lon": -142.63874332920685, "alt_km": 705.8596223535369, "timestamp": "2025-12-06T03:35:01.454299+00:00", "meta": {"OBJECT_NAME": "PLEIADES 1B", "OBJECT_ID": "2012-068A", "EPOCH": "2025-12-05T06:42:58.796352", "MEAN_MOTION": 14.58541765, "ECCENTRICITY": 0.00012367, "INCLINATION": 98.1803, "RA_OF_ASC_NODE": 52.0492, "ARG_OF_PERICENTER": 87.3889, "MEAN_ANOMALY": 272.7451, "EPHEMERIS_TYPE": 0, "CLASSIFICATION_TYPE": "U", "NORAD_CAT_ID": 39019, "ELEMENT_SET_NO": 999, "REV_AT_EPOCH": 69258, "BSTAR": 0.00019339889, "MEAN_MOTION_DOT": 8.53e-06, "MEAN_MOTION_DDOT": 0}, "tle": {"line1": "1 39019U 12068A   25339.27984718  .00000853  00000+0  19340-3 0  9992", "line2": "2 39019  98.1803  52.0492 0001236  87.3889 272.7451 14.58541765692584"}}, "geometry": {"type": "Point", "coordinates": [-142.63874332920685, -61.77337795744565]}}, {"type": "Feature", "properties": {"norad_id": 39030, "name": "GOKTURK 2", "group": "resource", "lat": 60.918402856381554, "lon": 168.0666454134275, "alt_km": 637.8868930563385, "timestamp": "2025-12-06T03:35:01.454309+00:00", "meta": {"OBJECT_NAME": "GOKTURK 2", "OBJECT_ID": "2012-073A", "EPOCH": "2025-12-05T07:46:14.306880", "MEAN_MOTION": 14.7527523, "ECCENTRICITY": 8.255e-05, "INCLINATION": 97.6898, "RA_OF_ASC_NODE": 181.3419, "ARG_OF_PERICENTER": 99.3606, "MEAN_ANOMALY": 260.7697, "EPHEMERIS_TYPE": 0, "CLASSIFICATION_TYPE": "U", "NORAD_CAT_ID": 39030, "ELEMENT_SET_NO": 999, "REV_AT_EPOCH": 69592, "BSTAR": 0.00018521303, "MEAN_MOTION_DOT": 1.207e-05, "MEAN_MOTION_DDOT": 0}, "tle": {"line1": "1 39030U 12073A   25339.32377670  .00001207  00000+0  18521-3 0  9994", "line2": "2 39030  97.6898 181.3419 0000825  99.3606 260.7697 14.75275230695923"}}, "geometry": {"type": "Point", "coordinates": [168.0666454134275, 60.918402856381554]}}, {"type": "Feature", "properties": {"norad_id": 39084, "name": "LANDSAT 8", "group": "resource", "lat": 81.23541891683355, "lon": -21.107781172265007, "alt_km": 694.280526519673, "timestamp": "2025-12-06T03:35:01.454320+00:00", "meta": {"OBJECT_NAME": "LANDSAT 8", "OBJECT_ID": "2013-008A", "EPOCH": "2025-12-05T07:24:33.900480", "MEAN_MOTION": 14.57102749, "ECCENTRICITY": 0.00011513, "INCLINATION": 98.2082, "RA_OF_ASC_NODE": 47.4917, "ARG_OF_PERICENTER": 85.2128, "MEAN_ANOMALY": 274.9202, "EPHEMERIS_TYPE": 0, "CLASSIFICATION_TYPE": "U", "NORAD_CAT_ID": 39084, "ELEMENT_SET_NO": 999, "REV_AT_EPOCH": 66966, "BSTAR": 0.00018948566, "MEAN_MOTION_DOT": 8.08e-06, "MEAN_MOTION_DDOT": 0}, "tle": {"line1": "1 39084U 13008A   25339.30872570  .00000808  00000+0  18949-3 0  9999", "line2": "2 39084  98.2082  47.4917 0001151  85.2128 274.9202 14.57102749669660"}}, "geometry": {"type": "Point", "coordinates": [-21.107781172265007, 81.23541891683355]}}, {"type": "Feature", "properties": {"norad_id": 39086, "name": "SARAL", "group": "resource", "lat": -68.84761971247381, "lon": -172.95210465748147, "alt_km": 791.6781556079823, "timestamp": "2025-12-06T03:35:01.454331+00:00", "meta": {"OBJECT_NAME": "SARAL", "OBJECT_ID": "2013-009A", "EPOCH": "2025-12-05T06:07:26.796864", "MEAN_MOTION": 14.32753015, "ECCENTRICITY": 0.00026885, "INCLINATION": 98.5506, "RA_OF_ASC_NODE": 163.2832, "ARG_OF_PERICENTER": 123.0883, "MEAN_ANOMALY": 237.056, "EPHEMERIS_TYPE": 0, "CLASSIFICATION_TYPE": "U", "NORAD_CAT_ID": 39086, "ELEMENT_SET_NO": 999, "REV_AT_EPOCH": 66783, "BSTAR": 0.00011483912, "MEAN_MOTION_DOT": 2.69e-06, "MEAN_MOTION_DDOT": 0}, "tle": {"line1": "1 39086U 13009A   25339.25517126  .00000269  00000+0  11484-3 0  9997", "line2": "2 39086  98.5506 163.2832 0002688 123.0883 237.0560 14.32753015667839"}}, "geometry": {"type": "Point", "coordinates": [-172.95210465748147, -68.84761971247381]}}, {"type": "Feature", "properties": {"norad_id": 39150, "name": "GAOFEN-1", "group": "resource", "lat": 68.27148420438039, "lon": -108.59258005915706, "alt_km": 626.2454571225971, "timestamp": "2025-12-06T03:35:01.454341+00:00", "meta": {"OBJECT_NAME": "GAOFEN-1", "OBJECT_ID": "2013-018A", "EPOCH": "2025-12-05T07:34:06.331584", "MEAN_MOTION": 14.76513657, "ECCENTRICITY": 0.00177668, "INCLINATION": 97.9336, "RA_OF_ASC_NODE": 50.1056, "ARG_OF_PERICENTER": 166.2889, "MEAN_ANOMALY": 193.8808, "EPHEMERIS_TYPE": 0, "CLASSIFICATION_TYPE": "U", "NORAD_CAT_ID": 39150, "ELEMENT_SET_NO": 999, "REV_AT_EPOCH": 67963, "BSTAR": 0.00023213709, "MEAN_MOTION_DOT": 1.57e-05, "MEAN_MOTION_DDOT": 0}, "tle": {"line1": "1 39150U 13018A   25339.31535106  .00001570  00000+0  23214-3 0  9994", "line2": "2 39150  97.9336  50.1056 0017766 166.2889 193.8808 14.76513657679634"}}, "geometry": {"type": "Point", "coordinates": [-108.59258005915706, 68.27148420438039]}}, {"type": "Feature", "properties": {"norad_id": 39160, "name": "VNREDSAT 1", "group": "resource", "lat": 81.80385404769132, "lon": -39.99104757674591, "alt_km": 668.9728811113782, "timestamp": "2025-12-06T03:35:01.454352+00:00", "meta": {"OBJECT_NAME": "VNREDSAT 1", "OBJECT_ID": "2013-021B", "EPOCH": "2025-12-05T07:30:43.138656", "MEAN_MOTION": 14.6490569, "ECCENTRICITY": 0.00013418, "INCLINATION": 97.9384, "RA_OF_ASC_NODE": 34.848, "ARG_OF_PERICENTER": 83.5864, "MEAN_ANOMALY": 276.5492, "EPHEMERIS_TYPE": 0, "CLASSIFICATION_TYPE": "U", "NORAD_CAT_ID": 39160, "ELEMENT_SET_NO": 999, "REV_AT_EPOCH": 67190, "BSTAR": 0.00026487956, "MEAN_MOTION_DOT": 1.371e-05, "MEAN_MOTION_DDOT": 0}, "tle": {"line1": "1 39160U 13021B   25339.31299929  .00001371  00000+0  26488-3 0  9994", "line2": "2 39160  97.9384  34.8480 0001341  83.5864 276.5492 14.64905690671903"}}, "geometry": {"type": "Point", "coordinates": [-39.99104757674591, 81.80385404769132]}}, {"type": "Feature", "properties": {"norad_id": 39227, "name": "ARIRANG-5 (KOMPSAT-5)", "group": "resource", "lat": -50.92266467143027, "lon": 174.0305231686277, "alt_km": 561.6314097832201, "timestamp": "2025-12-06T03:35:01.454362+00:00", "meta": {"OBJECT_NAME": "ARIRANG-5 (KOMPSAT-5)", "OBJECT_ID": "2013-042A", "EPOCH": "2025-12-05T07:03:43.111008", "MEAN_MOTION": 15.04514127, "ECCENTRICITY": 0.00041179, "INCLINATION": 97.615, "RA_OF_ASC_NODE": 163.7048, "ARG_OF_PERICENTER": 77.7016, "MEAN_ANOMALY": 282.4671, "EPHEMERIS_TYPE": 0, "CLASSIFICATION_TYPE": "U", "NORAD_CAT_ID": 39227, "ELEMENT_SET_NO": 999, "REV_AT_EPOCH": 67470, "BSTAR": 0.0002165701, "MEAN_MOTION_DOT": 2.973e-05, "MEAN_MOTION_DDOT": 0}, "tle": {"line1": "1 39227U 13042A   25339.29424897  .00002973  00000+0  21657-3 0  9994", "line2": "2 39227  97.6150 163.7048 0004117  77.7016 282.4671 15.04514127674707"}}, "geometry": {"type": "Point", "coordinates": [174.0305231686277, -50.92266467143027]}}, {"type": "Feature", "properties": {"norad_id": 39418, "name": "SKYSAT-A", "group": "resource", "lat": 25.370754445508798, "lon": -145.90210657566152, "alt_km": 534.8799004610783, "timestamp": "2025-12-06T03:35:01.454373+00:00", "meta": {"OBJECT_NAME": "SKYSAT-A", "OBJECT_ID": "2013-066C", "EPOCH": "2025-12-05T03:04:09.108480", "MEAN_MOTION": 15.1151777, "ECCENTRICITY": 0.00204042, "INCLINATION": 97.4119, "RA_OF_ASC_NODE": 29.5682, "ARG_OF_PERICENTER": 264.6839, "MEAN_ANOMALY": 95.2063, "EPHEMERIS_TYPE": 0, "CLASSIFICATION_TYPE": "U", "NORAD_CAT_ID": 39418, "ELEMENT_SET_NO": 999, "REV_AT_EPOCH": 65915, "BSTAR": 0.00042729792, "MEAN_MOTION_DOT": 7.213e-05, "MEAN_MOTION_DDOT": 0}, "tle": {"line1": "1 39418U 13066C   25339.12788320  .00007213  00000+0  42730-3 0  9995", "line2": "2 39418  97.4119  29.5682 0020404 264.6839  95.2063 15.11517770659154"}}, "geometry": {"type": "Point", "coordinates": [-145.90210657566152, 25.370754445508798]}}, {"type": "Feature", "properties": {"norad_id": 39419, "name": "DUBAISAT-2", "group": "resource", "lat": 13.570349993368499, "lon": -31.047986945728617, "alt_km": 535.7927878942219, "timestamp": "2025-12-06T03:35:01.454383+00:00", "meta": {"OBJECT_NAME": "DUBAISAT-2", "OBJECT_ID": "2013-066D", "EPOCH": "2025-12-05T06:49:26.707296", "MEAN_MOTION": 15.0824343, "ECCENTRICITY": 0.00112516, "INCLINATION": 97.4437, "RA_OF_ASC_NODE": 329.9224, "ARG_OF_PERICENTER": 348.7262, "MEAN_ANOMALY": 11.3713, "EPHEMERIS_TYPE": 0, "CLASSIFICATION_TYPE": "U", "NORAD_CAT_ID": 39419, "ELEMENT_SET_NO": 999, "REV_AT_EPOCH": 65714, "BSTAR": 0.0005318026, "MEAN_MOTION_DOT": 8.19e-05, "MEAN_MOTION_DDOT": 0}, "tle": {"line1": "1 39419U 13066D   25339.28433689  .00008190  00000+0  53180-3 0  9994", "line2": "2 39419  97.4437 329.9224 0011251 348.7262  11.3713 15.08243430657144"}}, "geometry": {"type": "Point", "coordinates": [-31.047986945728617, 13.570349993368499]}}]}